{
    "links": {
        "self": "http://www.neowsapp.com/rest/v1/neo/3763269?api_key=iIulBulltgU6a56xZRHN4H3l9WmuAYTsLGpBGhQ2"
    },
    "id": "3763269",
    "neo_reference_id": "3763269",
    "name": "(2016 UR109)",
    "designation": "2016 UR109",
    "nasa_jpl_url": "http://ssd.jpl.nasa.gov/sbdb.cgi?sstr=3763269",
    "absolute_magnitude_h": 22.1,
    "estimated_diameter": {
        "kilometers": {
            "estimated_diameter_min": 0.1010543415,
            "estimated_diameter_max": 0.2259643771
        },
        "meters": {
            "estimated_diameter_min": 101.054341542,
            "estimated_diameter_max": 225.9643771094
        },
        "miles": {
            "estimated_diameter_min": 0.0627922373,
            "estimated_diameter_max": 0.140407711
        },
        "feet": {
            "estimated_diameter_min": 331.5431259047,
            "estimated_diameter_max": 741.3529669956
        }
    },
    "is_potentially_hazardous_asteroid": false,
    "close_approach_data": [
        {
            "close_approach_date": "2015-03-13",
            "close_approach_date_full": "2015-Mar-13 22:58",
            "epoch_date_close_approach": 1426287480000,
            "relative_velocity": {
                "kilometers_per_second": "26.3229327415",
                "kilometers_per_hour": "94762.5578694115",
                "miles_per_hour": "58881.7682494685"
            },
            "miss_distance": {
                "astronomical": "0.4959253751",
                "lunar": "192.9149709139",
                "kilometers": "74189379.793911037",
                "miles": "46099142.9582728306"
            },
            "orbiting_body": "Earth"
        },
        {
            "close_approach_date": "2016-09-29",
            "close_approach_date_full": "2016-Sep-29 21:55",
            "epoch_date_close_approach": 1475186100000,
            "relative_velocity": {
                "kilometers_per_second": "15.4023082727",
                "kilometers_per_hour": "55448.3097817718",
                "miles_per_hour": "34453.4233752348"
            },
            "miss_distance": {
                "astronomical": "0.069858097",
                "lunar": "27.174799733",
                "kilometers": "10450622.51345339",
                "miles": "6493715.712261182"
            },
            "orbiting_body": "Earth"
        },
        {
            "close_approach_date": "2150-09-29",
            "close_approach_date_full": "2150-Sep-29 00:45",
            "epoch_date_close_approach": 5703698700000,
            "relative_velocity": {
                "kilometers_per_second": "14.2045679654",
                "kilometers_per_hour": "51136.444675265",
                "miles_per_hour": "31774.1980816945"
            },
            "miss_distance": {
                "astronomical": "0.0227137451",
                "lunar": "8.8356468439",
                "kilometers": "3397927.886682937",
                "miles": "2111374.4830490506"
            },
            "orbiting_body": "Earth"
        }
    ],
    "orbital_data": {
        "orbit_id": "5",
        "orbit_determination_date": "2017-04-06 08:22:33",
        "first_observation_date": "2016-10-30",
        "last_observation_date": "2016-11-17",
        "data_arc_in_days": 18,
        "observations_used": 41,
        "orbit_uncertainty": "8",
        "minimum_orbit_intersection": ".0168858",
        "jupiter_tisserand_invariant": "5.377",
        "epoch_osculation": "2457695.5",
        "eccentricity": ".3113928445823144",
        "semi_major_axis": "1.147326508878933",
        "inclination": "19.44080985965319",
        "ascending_node_longitude": "1.675793394258417",
        "orbital_period": "448.8786700162821",
        "perihelion_distance": ".7900572436144259",
        "perihelion_argument": "280.5091598246433",
        "aphelion_distance": "1.50459577414344",
        "perihelion_time": "2457602.208183284582",
        "mean_anomaly": "74.81989290409423",
        "mean_motion": ".8019984553664397",
        "equinox": "J2000",
        "orbit_class": {
            "orbit_class_type": "APO",
            "orbit_class_description": "Near-Earth asteroid orbits which cross the Earth’s orbit similar to that of 1862 Apollo",
            "orbit_class_range": "a (semi-major axis) > 1.0 AU; q (perihelion) < 1.017 AU"
        }
    },
    "is_sentry_object": false
}